[{"OBJECT_NAME":"STARLINK-1557","OBJECT_ID":"2020-055H","EPOCH":"2026-03-10T00:00:02.999808","MEAN_MOTION":15.2035016,"ECCENTRICITY":0.0001718,"INCLINATION":53.1122,"RA_OF_ASC_NODE":124.7429,"ARG_OF_PERICENTER":94.4179,"MEAN_ANOMALY":143.9555,"EPHEMERIS_TYPE":0,"CLASSIFICATION_TYPE":"U","NORAD_CAT_ID":46034,"ELEMENT_SET_NO":999,"REV_AT_EPOCH":578,"BSTAR":0.0055116646,"MEAN_MOTION_DOT":0.00123185,"MEAN_MOTION_DDOT":0},{"OBJECT_NAME":"AEROCUBE 18A","OBJECT_ID":"2025-052L","EPOCH":"2026-03-09T22:34:41.135232","MEAN_MOTION":15.23215068,"ECCENTRICITY":0.00058387,"INCLINATION":97.4079,"RA_OF_ASC_NODE":323.7178,"ARG_OF_PERICENTER":105.4164,"MEAN_ANOMALY":254.7718,"EPHEMERIS_TYPE":0,"CLASSIFICATION_TYPE":"U","NORAD_CAT_ID":63220,"ELEMENT_SET_NO":999,"REV_AT_EPOCH":5478,"BSTAR":0.00035659101,"MEAN_MOTION_DOT":8.374e-5,"MEAN_MOTION_DDOT":0}]
